[{"OBJECT_NAME":"KUIPER-00018","OBJECT_ID":"2025-088K","EPOCH":"2026-03-09T09:14:13.950816","MEAN_MOTION":14.79966884,"ECCENTRICITY":0.00010275,"INCLINATION":51.9017,"RA_OF_ASC_NODE":101.9157,"ARG_OF_PERICENTER":120.7858,"MEAN_ANOMALY":239.3206,"EPHEMERIS_TYPE":0,"CLASSIFICATION_TYPE":"U","NORAD_CAT_ID":63733,"ELEMENT_SET_NO":999,"REV_AT_EPOCH":4744,"BSTAR":0.001710843,"MEAN_MOTION_DOT":0.00012856,"MEAN_MOTION_DDOT":0},{"OBJECT_NAME":"IRIDIUM 33 DEB","OBJECT_ID":"1997-051JH","EPOCH":"2026-03-09T13:15:18.671616","MEAN_MOTION":14.77407981,"ECCENTRICITY":0.00147749,"INCLINATION":86.306,"RA_OF_ASC_NODE":267.8432,"ARG_OF_PERICENTER":223.6239,"MEAN_ANOMALY":189.8815,"EPHEMERIS_TYPE":0,"CLASSIFICATION_TYPE":"U","NORAD_CAT_ID":34540,"ELEMENT_SET_NO":999,"REV_AT_EPOCH":90302,"BSTAR":0.0014657078,"MEAN_MOTION_DOT":0.00010475,"MEAN_MOTION_DDOT":0}]
